{"type": "FeatureCollection", "features": [ {"type": "Feature", "properties": {"norad_id": 66911, "name": "1998-067XX", "group": "stations", "lat": -26.124953851748668, "lon": 98.78608031864152, "alt_km": 412.857992137775, "timestamp": "2025-12-16T21:38:55.938627+00:00", "meta": {"OBJECT_NAME": "1998-067XX", "OBJECT_ID": "1998-067XX", "EPOCH": "2025-12-15T13:21:12.839040", "MEAN_MOTION": 15.52435494, "ECCENTRICITY": 0.00044725, "INCLINATION": 51.6293, "RA_OF_ASC_NODE": 128.3487, "ARG_OF_PERICENTER": 225.8375, "MEAN_ANOMALY": 134.2248, "EPHEMERIS_TYPE": 0, "CLASSIFICATION_TYPE": "U", "NORAD_CAT_ID": 66911, "ELEMENT_SET_NO": 999, "REV_AT_EPOCH": 204, "BSTAR": 0.00085850941, "MEAN_MOTION_DOT": 0.00053353, "MEAN_MOTION_DDOT": 0}, "tle": {"line1": "1 66911U 98067XX  25349.55639860  .00053353  00000+0  85851-3 0  9996", "line2": "2 66911  51.6293 128.3487 0004472 225.8375 134.2248 15.52435494  2045"}}, "geometry": {"type": "Point", "coordinates": [98.78608031864152, -26.124953851748668]}}, {"type": "Feature", "properties": {"norad_id": 66912, "name": "1998-067XY", "group": "stations", "lat": -47.58060306346625, "lon": 61.605466537565746, "alt_km": 414.7027026101541, "timestamp": "2025-12-16T21:38:55.938637+00:00", "meta": {"OBJECT_NAME": "1998-067XY", "OBJECT_ID": "1998-067XY", "EPOCH": "2025-12-16T01:51:18.141984", "MEAN_MOTION": 15.51468873, "ECCENTRICITY": 0.00042589, "INCLINATION": 51.6299, "RA_OF_ASC_NODE": 125.8265, "ARG_OF_PERICENTER": 241.2877, "MEAN_ANOMALY": 118.7684, "EPHEMERIS_TYPE": 0, "CLASSIFICATION_TYPE": "U", "NORAD_CAT_ID": 66912, "ELEMENT_SET_NO": 999, "REV_AT_EPOCH": 212, "BSTAR": 0.00068474677, "MEAN_MOTION_DOT": 0.00040934, "MEAN_MOTION_DDOT": 0}, "tle": {"line1": "1 66912U 98067XY  25350.07729331  .00040934  00000+0  68475-3 0  9993", "line2": "2 66912  51.6299 125.8265 0004258 241.2877 118.7684 15.51468873  2125"}}, "geometry": {"type": "Point", "coordinates": [61.605466537565746, -47.58060306346625]}}]}